ELYSIUM STAR 2 & LFF    
1 43760U 18099C   24157.67757939  .00043709  00000+0  17390-2 0  9993
2 43760  97.5178 225.2180 0004631 304.7022  55.3779 15.25123789301486
